[{"OBJECT_NAME":"STARLINK-35688","OBJECT_ID":"2025-293S","EPOCH":"2026-03-28T12:00:00.998784","MEAN_MOTION":14.98357626,"ECCENTRICITY":0.0003046,"INCLINATION":70.0007,"RA_OF_ASC_NODE":47.2261,"ARG_OF_PERICENTER":273.2428,"MEAN_ANOMALY":331.2761,"EPHEMERIS_TYPE":0,"CLASSIFICATION_TYPE":"U","NORAD_CAT_ID":67019,"ELEMENT_SET_NO":999,"REV_AT_EPOCH":565,"BSTAR":-0.0041153,"MEAN_MOTION_DOT":-0.0004889,"MEAN_MOTION_DDOT":0},{"OBJECT_NAME":"STARLINK-36172","OBJECT_ID":"2025-293T","EPOCH":"2026-03-28T12:00:00.998784","MEAN_MOTION":14.98358643,"ECCENTRICITY":0.0002954,"INCLINATION":70.0007,"RA_OF_ASC_NODE":47.0248,"ARG_OF_PERICENTER":272.2476,"MEAN_ANOMALY":152.3328,"EPHEMERIS_TYPE":0,"CLASSIFICATION_TYPE":"U","NORAD_CAT_ID":67020,"ELEMENT_SET_NO":999,"REV_AT_EPOCH":566,"BSTAR":-0.0040051,"MEAN_MOTION_DOT":-0.00047593,"MEAN_MOTION_DDOT":0},{"OBJECT_NAME":"STARLINK-36184","OBJECT_ID":"2025-293U","EPOCH":"2026-03-28T07:18:25.642080","MEAN_MOTION":14.9834041,"ECCENTRICITY":0.0002878,"INCLINATION":70.0013,"RA_OF_ASC_NODE":47.6196,"ARG_OF_PERICENTER":269.6282,"MEAN_ANOMALY":90.4548,"EPHEMERIS_TYPE":0,"CLASSIFICATION_TYPE":"U","NORAD_CAT_ID":67021,"ELEMENT_SET_NO":999,"REV_AT_EPOCH":1767,"BSTAR":0.00041393,"MEAN_MOTION_DOT":4.851e-5,"MEAN_MOTION_DDOT":0},{"OBJECT_NAME":"STARLINK-36209","OBJECT_ID":"2025-293V","EPOCH":"2026-03-28T06:30:21.165984","MEAN_MOTION":14.98333438,"ECCENTRICITY":0.0002705,"INCLINATION":70.0009,"RA_OF_ASC_NODE":47.5013,"ARG_OF_PERICENTER":270.406,"MEAN_ANOMALY":89.6789,"EPHEMERIS_TYPE":0,"CLASSIFICATION_TYPE":"U","NORAD_CAT_ID":67022,"ELEMENT_SET_NO":999,"REV_AT_EPOCH":1767,"BSTAR":0.00024968,"MEAN_MOTION_DOT":2.888e-5,"MEAN_MOTION_DDOT":0},{"OBJECT_NAME":"STARLINK-36191","OBJECT_ID":"2025-293W","EPOCH":"2026-03-28T07:30:27.100224","MEAN_MOTION":14.98329923,"ECCENTRICITY":0.0002593,"INCLINATION":70.0021,"RA_OF_ASC_NODE":47.6484,"ARG_OF_PERICENTER":270.0213,"MEAN_ANOMALY":90.0649,"EPHEMERIS_TYPE":0,"CLASSIFICATION_TYPE":"U","NORAD_CAT_ID":67023,"ELEMENT_SET_NO":999,"REV_AT_EPOCH":1767,"BSTAR":0.00012256,"MEAN_MOTION_DOT":1.37e-5,"MEAN_MOTION_DDOT":0},{"OBJECT_NAME":"STARLINK-36192","OBJECT_ID":"2025-293X","EPOCH":"2026-03-28T07:06:24.446592","MEAN_MOTION":14.9833888,"ECCENTRICITY":0.0002871,"INCLINATION":70.0012,"RA_OF_ASC_NODE":47.5878,"ARG_OF_PERICENTER":267.4003,"MEAN_ANOMALY":92.6828,"EPHEMERIS_TYPE":0,"CLASSIFICATION_TYPE":"U","NORAD_CAT_ID":67024,"ELEMENT_SET_NO":999,"REV_AT_EPOCH":1767,"BSTAR":0.00040397,"MEAN_MOTION_DOT":4.731e-5,"MEAN_MOTION_DDOT":0},{"OBJECT_NAME":"STARLINK-36178","OBJECT_ID":"2025-293Y","EPOCH":"2026-03-28T06:42:21.835296","MEAN_MOTION":14.98336935,"ECCENTRICITY":0.0002755,"INCLINATION":70.002,"RA_OF_ASC_NODE":47.531,"ARG_OF_PERICENTER":270.0162,"MEAN_ANOMALY":90.0682,"EPHEMERIS_TYPE":0,"CLASSIFICATION_TYPE":"U","NORAD_CAT_ID":67025,"ELEMENT_SET_NO":999,"REV_AT_EPOCH":1767,"BSTAR":0.00052817,"MEAN_MOTION_DOT":6.216e-5,"MEAN_MOTION_DDOT":0},{"OBJECT_NAME":"STARLINK-36176","OBJECT_ID":"2025-293Z","EPOCH":"2026-03-28T07:48:26.703648","MEAN_MOTION":14.98338695,"ECCENTRICITY":0.0002383,"INCLINATION":70.0023,"RA_OF_ASC_NODE":47.2883,"ARG_OF_PERICENTER":264.4839,"MEAN_ANOMALY":95.6048,"EPHEMERIS_TYPE":0,"CLASSIFICATION_TYPE":"U","NORAD_CAT_ID":67026,"ELEMENT_SET_NO":999,"REV_AT_EPOCH":1767,"BSTAR":0.00046109,"MEAN_MOTION_DOT":5.414e-5,"MEAN_MOTION_DDOT":0},{"OBJECT_NAME":"STARLINK-36171","OBJECT_ID":"2025-293AA","EPOCH":"2026-03-28T12:00:00.998784","MEAN_MOTION":14.98358167,"ECCENTRICITY":0.0003341,"INCLINATION":70.0008,"RA_OF_ASC_NODE":46.8749,"ARG_OF_PERICENTER":275.0908,"MEAN_ANOMALY":284.5524,"EPHEMERIS_TYPE":0,"CLASSIFICATION_TYPE":"U","NORAD_CAT_ID":67027,"ELEMENT_SET_NO":999,"REV_AT_EPOCH":575,"BSTAR":-0.0040182,"MEAN_MOTION_DOT":-0.00047748,"MEAN_MOTION_DDOT":0},{"OBJECT_NAME":"STARLINK-36132","OBJECT_ID":"2025-293AB","EPOCH":"2026-03-28T07:24:26.159904","MEAN_MOTION":14.98335027,"ECCENTRICITY":0.0003667,"INCLINATION":70.0013,"RA_OF_ASC_NODE":47.632,"ARG_OF_PERICENTER":265.2687,"MEAN_ANOMALY":94.8053,"EPHEMERIS_TYPE":0,"CLASSIFICATION_TYPE":"U","NORAD_CAT_ID":67028,"ELEMENT_SET_NO":999,"REV_AT_EPOCH":1767,"BSTAR":0.00021816,"MEAN_MOTION_DOT":2.511e-5,"MEAN_MOTION_DDOT":0},{"OBJECT_NAME":"STARLINK-36190","OBJECT_ID":"2025-293AC","EPOCH":"2026-03-28T07:36:27.609408","MEAN_MOTION":14.98336981,"ECCENTRICITY":0.0002615,"INCLINATION":70.0014,"RA_OF_ASC_NODE":47.6633,"ARG_OF_PERICENTER":262.8729,"MEAN_ANOMALY":97.2133,"EPHEMERIS_TYPE":0,"CLASSIFICATION_TYPE":"U","NORAD_CAT_ID":67029,"ELEMENT_SET_NO":999,"REV_AT_EPOCH":1767,"BSTAR":0.00059257,"MEAN_MOTION_DOT":6.986e-5,"MEAN_MOTION_DDOT":0},{"OBJECT_NAME":"STARLINK-36138","OBJECT_ID":"2025-294A","EPOCH":"2026-03-28T07:06:52.259616","MEAN_MOTION":15.27620681,"ECCENTRICITY":4.37e-5,"INCLINATION":43.0053,"RA_OF_ASC_NODE":293.1059,"ARG_OF_PERICENTER":264.8132,"MEAN_ANOMALY":95.267,"EPHEMERIS_TYPE":0,"CLASSIFICATION_TYPE":"U","NORAD_CAT_ID":67030,"ELEMENT_SET_NO":999,"REV_AT_EPOCH":1764,"BSTAR":0.0014216,"MEAN_MOTION_DOT":0.00039113,"MEAN_MOTION_DDOT":0},{"OBJECT_NAME":"STARLINK-36150","OBJECT_ID":"2025-294B","EPOCH":"2026-03-27T22:16:52.514112","MEAN_MOTION":15.27587536,"ECCENTRICITY":0.0001764,"INCLINATION":42.999,"RA_OF_ASC_NODE":294.6376,"ARG_OF_PERICENTER":270.8143,"MEAN_ANOMALY":89.2506,"EPHEMERIS_TYPE":0,"CLASSIFICATION_TYPE":"U","NORAD_CAT_ID":67031,"ELEMENT_SET_NO":999,"REV_AT_EPOCH":1759,"BSTAR":0.001004,"MEAN_MOTION_DOT":0.00027476,"MEAN_MOTION_DDOT":0},{"OBJECT_NAME":"STARLINK-36131","OBJECT_ID":"2025-294C","EPOCH":"2026-03-28T06:24:18.787968","MEAN_MOTION":15.27583531,"ECCENTRICITY":0.0001354,"INCLINATION":42.9998,"RA_OF_ASC_NODE":292.8838,"ARG_OF_PERICENTER":270.3725,"MEAN_ANOMALY":89.6971,"EPHEMERIS_TYPE":0,"CLASSIFICATION_TYPE":"U","NORAD_CAT_ID":67032,"ELEMENT_SET_NO":999,"REV_AT_EPOCH":1764,"BSTAR":0.00084404,"MEAN_MOTION_DOT":0.00023039,"MEAN_MOTION_DDOT":0},{"OBJECT_NAME":"STARLINK-36137","OBJECT_ID":"2025-294D","EPOCH":"2026-03-27T22:27:58.459392","MEAN_MOTION":15.27594082,"ECCENTRICITY":0.0001644,"INCLINATION":43.0006,"RA_OF_ASC_NODE":294.6976,"ARG_OF_PERICENTER":266.0997,"MEAN_ANOMALY":93.9666,"EPHEMERIS_TYPE":0,"CLASSIFICATION_TYPE":"U","NORAD_CAT_ID":67033,"ELEMENT_SET_NO":999,"REV_AT_EPOCH":1759,"BSTAR":0.0010939,"MEAN_MOTION_DOT":0.00029974,"MEAN_MOTION_DDOT":0},{"OBJECT_NAME":"STARLINK-36140","OBJECT_ID":"2025-294E","EPOCH":"2026-03-27T22:04:08.020992","MEAN_MOTION":15.27595853,"ECCENTRICITY":0.0001545,"INCLINATION":43.0003,"RA_OF_ASC_NODE":295.4338,"ARG_OF_PERICENTER":267.113,"MEAN_ANOMALY":92.9545,"EPHEMERIS_TYPE":0,"CLASSIFICATION_TYPE":"U","NORAD_CAT_ID":67034,"ELEMENT_SET_NO":999,"REV_AT_EPOCH":1758,"BSTAR":0.00080899,"MEAN_MOTION_DOT":0.00022077,"MEAN_MOTION_DDOT":0},{"OBJECT_NAME":"STARLINK-36085","OBJECT_ID":"2025-294F","EPOCH":"2026-03-27T23:41:59.351136","MEAN_MOTION":15.27602142,"ECCENTRICITY":0.0001997,"INCLINATION":43.0008,"RA_OF_ASC_NODE":295.0788,"ARG_OF_PERICENTER":274.2089,"MEAN_ANOMALY":85.8534,"EPHEMERIS_TYPE":0,"CLASSIFICATION_TYPE":"U","NORAD_CAT_ID":67035,"ELEMENT_SET_NO":999,"REV_AT_EPOCH":1759,"BSTAR":0.00088923,"MEAN_MOTION_DOT":0.00024305,"MEAN_MOTION_DDOT":0}]
