STARLINK-35688          
1 67019U 25293S   26087.50001156 -.00048890  00000+0 -41153-2 0  9991
2 67019  70.0007  47.2261 0003046 273.2428 331.2761 14.98357626  5652
STARLINK-36172          
1 67020U 25293T   26087.50001156 -.00047593  00000+0 -40051-2 0  9998
2 67020  70.0007  47.0248 0002954 272.2476 152.3328 14.98358643  5668
STARLINK-36184          
1 67021U 25293U   26087.30446345  .00004851  00000+0  41393-3 0  9999
2 67021  70.0013  47.6196 0002878 269.6282  90.4548 14.98340410 17677
STARLINK-36209          
1 67022U 25293V   26087.27107831  .00002888  00000+0  24968-3 0  9997
2 67022  70.0009  47.5013 0002705 270.4060  89.6789 14.98333438 17672
STARLINK-36191          
1 67023U 25293W   26087.31281366  .00001370  00000+0  12256-3 0  9991
2 67023  70.0021  47.6484 0002593 270.0213  90.0649 14.98329923 17676
STARLINK-36192          
1 67024U 25293X   26087.29611628  .00004731  00000+0  40397-3 0  9998
2 67024  70.0012  47.5878 0002871 267.4003  92.6828 14.98338880 17678
STARLINK-36178          
1 67025U 25293Y   26087.27941939  .00006216  00000+0  52817-3 0  9998
2 67025  70.0020  47.5310 0002755 270.0162  90.0682 14.98336935 17675
STARLINK-36176          
1 67026U 25293Z   26087.32530907  .00005414  00000+0  46109-3 0  9990
2 67026  70.0023  47.2883 0002383 264.4839  95.6048 14.98338695 17678
STARLINK-36171          
1 67027U 25293AA  26087.50001156 -.00047748  00000+0 -40182-2 0  9992
2 67027  70.0008  46.8749 0003341 275.0908 284.5524 14.98358167  5758
STARLINK-36132          
1 67028U 25293AB  26087.30863611  .00002511  00000+0  21816-3 0  9994
2 67028  70.0013  47.6320 0003667 265.2687  94.8053 14.98335027 17678
STARLINK-36190          
1 67029U 25293AC  26087.31698622  .00006986  00000+0  59257-3 0  9994
2 67029  70.0014  47.6633 0002615 262.8729  97.2133 14.98336981 17675
STARLINK-36138          
1 67030U 25294A   26087.29643819  .00039113  00000+0  14216-2 0  9995
2 67030  43.0053 293.1059 0000437 264.8132  95.2670 15.27620681 17647
STARLINK-36150          
1 67031U 25294B   26086.92838558  .00027476  00000+0  10040-2 0  9991
2 67031  42.9990 294.6376 0001764 270.8143  89.2506 15.27587536 17593
STARLINK-36131          
1 67032U 25294C   26087.26688412  .00023039  00000+0  84404-3 0  9999
2 67032  42.9998 292.8838 0001354 270.3725  89.6971 15.27583531 17648
STARLINK-36137          
1 67033U 25294D   26086.93609328  .00029974  00000+0  10939-2 0  9997
2 67033  43.0006 294.6976 0001644 266.0997  93.9666 15.27594082 17595
STARLINK-36140          
1 67034U 25294E   26086.91953728  .00022077  00000+0  80899-3 0  9992
2 67034  43.0003 295.4338 0001545 267.1130  92.9545 15.27595853 17586
STARLINK-36085          
1 67035U 25294F   26086.98749249  .00024305  00000+0  88923-3 0  9993
2 67035  43.0008 295.0788 0001997 274.2089  85.8534 15.27602142 17590
